[{"CCSDS_OMM_VERS":"2.0","COMMENT":"GENERATED VIA SPACE-TRACK.ORG API","CREATION_DATE":"2020-12-02T18:56:12","ORIGINATOR":"18 SPCS","OBJECT_NAME":"STARLINK-1541","OBJECT_ID":"2020-055AB","CENTER_NAME":"EARTH","REF_FRAME":"TEME","TIME_SYSTEM":"UTC","MEAN_ELEMENT_THEORY":"SGP4","EPOCH":"2020-12-02T02:09:14.549472","MEAN_MOTION":"15.06391313","ECCENTRICITY":"0.00010040","INCLINATION":"53.0173","RA_OF_ASC_NODE":"111.9781","ARG_OF_PERICENTER":"86.6486","MEAN_ANOMALY":"273.4617","EPHEMERIS_TYPE":"0","CLASSIFICATION_TYPE":"U","NORAD_CAT_ID":"46052","ELEMENT_SET_NO":"999","REV_AT_EPOCH":"1858","BSTAR":"-0.00000089122000","MEAN_MOTION_DOT":"-0.00000295","MEAN_MOTION_DDOT":"0.0000000000000","SEMIMAJOR_AXIS":"6925.375","PERIOD":"95.592","APOAPSIS":"547.935","PERIAPSIS":"546.544","OBJECT_TYPE":"PAYLOAD","RCS_SIZE":"LARGE","COUNTRY_CODE":"US","LAUNCH_DATE":"2020-08-07","SITE":"AFETR","DECAY_DATE":null,"FILE":"2895932","GP_ID":"166734811","TLE_LINE0":"0 STARLINK-1541","TLE_LINE1":"1 46052U 20055AB  20337.08975173 -.00000295  00000-0 -89122-6 0  9990","TLE_LINE2":"2 46052  53.0173 111.9781 0001004  86.6486 273.4617 15.06391313 18583"},{"CCSDS_OMM_VERS":"2.0","COMMENT":"GENERATED VIA SPACE-TRACK.ORG API","CREATION_DATE":"2020-12-02T18:56:12","ORIGINATOR":"18 SPCS","OBJECT_NAME":"STARLINK-1543","OBJECT_ID":"2020-055AC","CENTER_NAME":"EARTH","REF_FRAME":"TEME","TIME_SYSTEM":"UTC","MEAN_ELEMENT_THEORY":"SGP4","EPOCH":"2020-12-02T02:14:30.927264","MEAN_MOTION":"15.06376650","ECCENTRICITY":"0.00017680","INCLINATION":"53.0059","RA_OF_ASC_NODE":"111.9612","ARG_OF_PERICENTER":"99.9655","MEAN_ANOMALY":"260.1533","EPHEMERIS_TYPE":"0","CLASSIFICATION_TYPE":"U","NORAD_CAT_ID":"46053","ELEMENT_SET_NO":"999","REV_AT_EPOCH":"1858","BSTAR":"0.00060784000000","MEAN_MOTION_DOT":"0.00008778","MEAN_MOTION_DDOT":"0.0000000000000","SEMIMAJOR_AXIS":"6925.420","PERIOD":"95.593","APOAPSIS":"548.509","PERIAPSIS":"546.060","OBJECT_TYPE":"PAYLOAD","RCS_SIZE":"LARGE","COUNTRY_CODE":"US","LAUNCH_DATE":"2020-08-07","SITE":"AFETR","DECAY_DATE":null,"FILE":"2895933","GP_ID":"166734845","TLE_LINE0":"0 STARLINK-1543","TLE_LINE1":"1 46053U 20055AC  20337.09341351  .00008778  00000-0  60784-3 0  9999","TLE_LINE2":"2 46053  53.0059 111.9612 0001768  99.9655 260.1533 15.06376650 18589"},{"CCSDS_OMM_VERS":"2.0","COMMENT":"GENERATED VIA SPACE-TRACK.ORG API","CREATION_DATE":"2020-12-02T19:24:44","ORIGINATOR":"18 SPCS","OBJECT_NAME":"STARLINK-1543","OBJECT_ID":"2020-055AC","CENTER_NAME":"EARTH","REF_FRAME":"TEME","TIME_SYSTEM":"UTC","MEAN_ELEMENT_THEORY":"SGP4","EPOCH":"2020-12-02T02:14:30.927264","MEAN_MOTION":"15.06376650","ECCENTRICITY":"0.00017680","INCLINATION":"53.0059","RA_OF_ASC_NODE":"111.9612","ARG_OF_PERICENTER":"99.9655","MEAN_ANOMALY":"260.1533","EPHEMERIS_TYPE":"0","CLASSIFICATION_TYPE":"U","NORAD_CAT_ID":"46053","ELEMENT_SET_NO":"999","REV_AT_EPOCH":"1910","BSTAR":"0.00060784000000","MEAN_MOTION_DOT":"0.00008778","MEAN_MOTION_DDOT":"0.0000000000000","SEMIMAJOR_AXIS":"6925.420","PERIOD":"95.593","APOAPSIS":"548.509","PERIAPSIS":"546.060","OBJECT_TYPE":"PAYLOAD","RCS_SIZE":"LARGE","COUNTRY_CODE":"US","LAUNCH_DATE":"2020-08-07","SITE":"AFETR","DECAY_DATE":null,"FILE":"2896233","GP_ID":"166761777","TLE_LINE0":"0 STARLINK-1543","TLE_LINE1":"1 46053U 20055AC  20337.09341351  .00008778  00000-0  60784-3 0  9999","TLE_LINE2":"2 46053  53.0059 111.9612 0001768  99.9655 260.1533 15.06376650 19108"},{"CCSDS_OMM_VERS":"2.0","COMMENT":"GENERATED VIA SPACE-TRACK.ORG API","CREATION_DATE":"2020-12-02T18:56:12","ORIGINATOR":"18 SPCS","OBJECT_NAME":"STARLINK-1535","OBJECT_ID":"2020-055Z","CENTER_NAME":"EARTH","REF_FRAME":"TEME","TIME_SYSTEM":"UTC","MEAN_ELEMENT_THEORY":"SGP4","EPOCH":"2020-12-02T02:19:50.839680","MEAN_MOTION":"15.06168429","ECCENTRICITY":"0.00015470","INCLINATION":"52.9963","RA_OF_ASC_NODE":"111.9918","ARG_OF_PERICENTER":"78.5486","MEAN_ANOMALY":"281.5676","EPHEMERIS_TYPE":"0","CLASSIFICATION_TYPE":"U","NORAD_CAT_ID":"46050","ELEMENT_SET_NO":"999","REV_AT_EPOCH":"1856","BSTAR":"0.00314860000000","MEAN_MOTION_DOT":"0.00046636","MEAN_MOTION_DDOT":"0.0000000000000","SEMIMAJOR_AXIS":"6926.058","PERIOD":"95.606","APOAPSIS":"548.994","PERIAPSIS":"546.851","OBJECT_TYPE":"PAYLOAD","RCS_SIZE":"LARGE","COUNTRY_CODE":"US","LAUNCH_DATE":"2020-08-07","SITE":"AFETR","DECAY_DATE":null,"FILE":"2895954","GP_ID":"166734269","TLE_LINE0":"0 STARLINK-1535","TLE_LINE1":"1 46050U 20055Z   20337.09711620  .00046636  00000-0  31486-2 0  9997","TLE_LINE2":"2 46050  52.9963 111.9918 0001547  78.5486 281.5676 15.06168429 18563"},{"CCSDS_OMM_VERS":"2.0","COMMENT":"GENERATED VIA SPACE-TRACK.ORG API","CREATION_DATE":"2020-12-02T19:24:44","ORIGINATOR":"18 SPCS","OBJECT_NAME":"STARLINK-1526","OBJECT_ID":"2020-055C","CENTER_NAME":"EARTH","REF_FRAME":"TEME","TIME_SYSTEM":"UTC","MEAN_ELEMENT_THEORY":"SGP4","EPOCH":"2020-12-02T02:24:06.901632","MEAN_MOTION":"15.05582281","ECCENTRICITY":"0.00026010","INCLINATION":"53.0114","RA_OF_ASC_NODE":"121.9028","ARG_OF_PERICENTER":"83.3044","MEAN_ANOMALY":"276.8240","EPHEMERIS_TYPE":"0","CLASSIFICATION_TYPE":"U","NORAD_CAT_ID":"46029","ELEMENT_SET_NO":"999","REV_AT_EPOCH":"1896","BSTAR":"-0.00001331000000","MEAN_MOTION_DOT":"-0.00000474","MEAN_MOTION_DDOT":"0.0000000000000","SEMIMAJOR_AXIS":"6927.855","PERIOD":"95.644","APOAPSIS":"551.522","PERIAPSIS":"547.918","OBJECT_TYPE":"PAYLOAD","RCS_SIZE":"LARGE","COUNTRY_CODE":"US","LAUNCH_DATE":"2020-08-07","SITE":"AFETR","DECAY_DATE":null,"FILE":"2896233","GP_ID":"166761774","TLE_LINE0":"0 STARLINK-1526","TLE_LINE1":"1 46029U 20055C   20337.10007988 -.00000474  00000-0 -13310-4 0  9990","TLE_LINE2":"2 46029  53.0114 121.9028 0002601  83.3044 276.8240 15.05582281 18961"},{"CCSDS_OMM_VERS":"2.0","COMMENT":"GENERATED VIA SPACE-TRACK.ORG API","CREATION_DATE":"2020-12-02T18:56:12","ORIGINATOR":"18 SPCS","OBJECT_NAME":"STARLINK-1548","OBJECT_ID":"2020-055AD","CENTER_NAME":"EARTH","REF_FRAME":"TEME","TIME_SYSTEM":"UTC","MEAN_ELEMENT_THEORY":"SGP4","EPOCH":"2020-12-02T02:25:05.568096","MEAN_MOTION":"15.06089143","ECCENTRICITY":"0.00022710","INCLINATION":"52.9908","RA_OF_ASC_NODE":"111.9873","ARG_OF_PERICENTER":"98.6543","MEAN_ANOMALY":"261.4702","EPHEMERIS_TYPE":"0","CLASSIFICATION_TYPE":"U","NORAD_CAT_ID":"46054","ELEMENT_SET_NO":"999","REV_AT_EPOCH":"1856","BSTAR":"0.00339540000000","MEAN_MOTION_DOT":"0.00050233","MEAN_MOTION_DDOT":"0.0000000000000","SEMIMAJOR_AXIS":"6926.301","PERIOD":"95.611","APOAPSIS":"549.739","PERIAPSIS":"546.593","OBJECT_TYPE":"PAYLOAD","RCS_SIZE":"LARGE","COUNTRY_CODE":"US","LAUNCH_DATE":"2020-08-07","SITE":"AFETR","DECAY_DATE":null,"FILE":"2895934","GP_ID":"166734350","TLE_LINE0":"0 STARLINK-1548","TLE_LINE1":"1 46054U 20055AD  20337.10075889  .00050233  00000-0  33954-2 0  9993","TLE_LINE2":"2 46054  52.9908 111.9873 0002271  98.6543 261.4702 15.06089143 18560"},{"CCSDS_OMM_VERS":"2.0","COMMENT":"GENERATED VIA SPACE-TRACK.ORG API","CREATION_DATE":"2020-12-02T19:24:44","ORIGINATOR":"18 SPCS","OBJECT_NAME":"STARLINK-1548","OBJECT_ID":"2020-055AD","CENTER_NAME":"EARTH","REF_FRAME":"TEME","TIME_SYSTEM":"UTC","MEAN_ELEMENT_THEORY":"SGP4","EPOCH":"2020-12-02T02:25:05.568096","MEAN_MOTION":"15.06089143","ECCENTRICITY":"0.00022710","INCLINATION":"52.9908","RA_OF_ASC_NODE":"111.9873","ARG_OF_PERICENTER":"98.6543","MEAN_ANOMALY":"261.4702","EPHEMERIS_TYPE":"0","CLASSIFICATION_TYPE":"U","NORAD_CAT_ID":"46054","ELEMENT_SET_NO":"999","REV_AT_EPOCH":"1910","BSTAR":"0.00339540000000","MEAN_MOTION_DOT":"0.00050233","MEAN_MOTION_DDOT":"0.0000000000000","SEMIMAJOR_AXIS":"6926.301","PERIOD":"95.611","APOAPSIS":"549.739","PERIAPSIS":"546.593","OBJECT_TYPE":"PAYLOAD","RCS_SIZE":"LARGE","COUNTRY_CODE":"US","LAUNCH_DATE":"2020-08-07","SITE":"AFETR","DECAY_DATE":null,"FILE":"2896233","GP_ID":"166760153","TLE_LINE0":"0 STARLINK-1548","TLE_LINE1":"1 46054U 20055AD  20337.10075889  .00050233  00000-0  33954-2 0  9993","TLE_LINE2":"2 46054  52.9908 111.9873 0002271  98.6543 261.4702 15.06089143 19101"},{"CCSDS_OMM_VERS":"2.0","COMMENT":"GENERATED VIA SPACE-TRACK.ORG API","CREATION_DATE":"2020-12-02T18:56:12","ORIGINATOR":"18 SPCS","OBJECT_NAME":"STARLINK-1584","OBJECT_ID":"2020-055T","CENTER_NAME":"EARTH","REF_FRAME":"TEME","TIME_SYSTEM":"UTC","MEAN_ELEMENT_THEORY":"SGP4","EPOCH":"2020-12-02T02:28:53.629536","MEAN_MOTION":"15.05584809","ECCENTRICITY":"0.00022350","INCLINATION":"53.0075","RA_OF_ASC_NODE":"121.8979","ARG_OF_PERICENTER":"93.0096","MEAN_ANOMALY":"267.1148","EPHEMERIS_TYPE":"0","CLASSIFICATION_TYPE":"U","NORAD_CAT_ID":"46044","ELEMENT_SET_NO":"999","REV_AT_EPOCH":"1845","BSTAR":"0.00007782800000","MEAN_MOTION_DOT":"0.00000855","MEAN_MOTION_DDOT":"0.0000000000000","SEMIMAJOR_AXIS":"6927.848","PERIOD":"95.643","APOAPSIS":"551.261","PERIAPSIS":"548.164","OBJECT_TYPE":"PAYLOAD","RCS_SIZE":"LARGE","COUNTRY_CODE":"US","LAUNCH_DATE":"2020-08-07","SITE":"AFETR","DECAY_DATE":null,"FILE":"2896006","GP_ID":"166735480","TLE_LINE0":"0 STARLINK-1584","TLE_LINE1":"1 46044U 20055T   20337.10339849  .00000855  00000-0  77828-4 0  9996","TLE_LINE2":"2 46044  53.0075 121.8979 0002235  93.0096 267.1148 15.05584809 18458"}]